stk.v.11.0

BEGIN Ephemeris

NumberOfEphemerisPoints	30

ScenarioEpoch	28 Apr 2017 17:00:00

InterpolationMethod            Lagrange

InterpolationOrder            7

CentralBody            Earth

CoordinateSystem            Fixed


EphemerisTimePosVel

+0.00000000000000e+000 +6.83625048660271e+006 -1.43533304318972e+007 +2.10736646684617e+007 +1.59943356244727e+003 +2.15473733001692e+003 +9.82450078201710e+002
+6.00000000000000e+001 +6.93356150337235e+006 -1.42230704422382e+007 +2.11321518425958e+007 +1.61182423103709e+003 +2.15468302896593e+003 +9.55243295299432e+002
+1.20000000000000e+002 +7.03160426308408e+006 -1.40928281715792e+007 +2.11889908939582e+007 +1.62412034004623e+003 +2.15439402233546e+003 +9.27964152051743e+002
+1.80000000000000e+002 +7.13037288102511e+006 -1.39626178671481e+007 +2.12441776980955e+007 +1.63631913966146e+003 +2.15387119010392e+003 +9.00614789103447e+002
+2.40000000000000e+002 +7.22986130896501e+006 -1.38324537197528e+007 +2.12977082632478e+007 +1.64841789415227e+003 +2.15311545022238e+003 +8.73197351870989e+002
+3.00000000000000e+002 +7.33006333606925e+006 -1.37023498614638e+007 +2.13495787305784e+007 +1.66041388236071e+003 +2.15212775842225e+003 +8.45713990362505e+002
+3.60000000000000e+002 +7.43097258984199e+006 -1.35723203633080e+007 +2.13997853743910e+007 +1.67230439818846e+003 +2.15090910801634e+003 +8.18166858997684e+002
+4.20000000000000e+002 +7.53258253709801e+006 -1.34423792329779e+007 +2.14483246023348e+007 +1.68408675108076e+003 +2.14946052969346e+003 +7.90558116427566e+002
+4.80000000000000e+002 +7.63488648496373e+006 -1.33125404125532e+007 +2.14951929555979e+007 +1.69575826650753e+003 +2.14778309130645e+003 +7.62889925354162e+002
+5.40000000000000e+002 +7.73787758190667e+006 -1.31828177762374e+007 +2.15403871090883e+007 +1.70731628644119e+003 +2.14587789765371e+003 +7.35164452350051e+002
+6.00000000000000e+002 +7.84154881879357e+006 -1.30532251281082e+007 +2.15839038716031e+007 +1.71875816983135e+003 +2.14374609025439e+003 +7.07383867677868e+002
+6.60000000000000e+002 +7.94589302997694e+006 -1.29237761998838e+007 +2.16257401859859e+007 +1.73008129307623e+003 +2.14138884711721e+003 +6.79550345109750e+002
+7.20000000000000e+002 +8.05090289440920e+006 -1.27944846487041e+007 +2.16658931292717e+007 +1.74128305049065e+003 +2.13880738250288e+003 +6.51666061746753e+002
+7.80000000000000e+002 +8.15657093678509e+006 -1.26653640549273e+007 +2.17043599128206e+007 +1.75236085477059e+003 +2.13600294668032e+003 +6.23733197838243e+002
+8.40000000000000e+002 +8.26288952871148e+006 -1.25364279199435e+007 +2.17411378824388e+007 +1.76331213745426e+003 +2.13297682567668e+003 +5.95753936601313e+002
+9.00000000000000e+002 +8.36985088990448e+006 -1.24076896640043e+007 +2.17762245184883e+007 +1.77413434937943e+003 +2.12973034102115e+003 +5.67730464040180e+002
+9.60000000000000e+002 +8.47744708941364e+006 -1.22791626240690e+007 +2.18096174359841e+007 +1.78482496113721e+003 +2.12626484948269e+003 +5.39664968765677e+002
+1.02000000000000e+003 +8.58567004687319e+006 -1.21508600516689e+007 +2.18413143846805e+007 +1.79538146352195e+003 +2.12258174280172e+003 +5.11559641814729e+002
+1.08000000000000e+003 +8.69451153377952e+006 -1.20227951107886e+007 +2.18713132491444e+007 +1.80580136797733e+003 +2.11868244741578e+003 +4.83416676469985e+002
+1.14000000000000e+003 +8.80396317479539e+006 -1.18949808757656e+007 +2.18996120488178e+007 +1.81608220703850e+003 +2.11456842417929e+003 +4.55238268079458e+002
+1.20000000000000e+003 +8.91401644907978e+006 -1.17674303292079e+007 +2.19262089380679e+007 +1.82622153477021e+003 +2.11024116807741e+003 +4.27026613876348e+002
+1.26000000000000e+003 +9.02466269164390e+006 -1.16401563599307e+007 +2.19511022062259e+007 +1.83621692720088e+003 +2.10570220793407e+003 +3.98783912798944e+002
+1.32000000000000e+003 +9.13589309473246e+006 -1.15131717609122e+007 +2.19742902776133e+007 +1.84606598275251e+003 +2.10095310611431e+003 +3.70512365310679e+002
+1.38000000000000e+003 +9.24769870923037e+006 -1.13864892272684e+007 +2.19957717115576e+007 +1.85576632266630e+003 +2.09599545822078e+003 +3.42214173220349e+002
+1.44000000000000e+003 +9.36007044609423e+006 -1.12601213542480e+007 +2.20155452023961e+007 +1.86531559142407e+003 +2.09083089278480e+003 +3.13891539502536e+002
+1.50000000000000e+003 +9.47299907780862e+006 -1.11340806352473e+007 +2.20336095794667e+007 +1.87471145716517e+003 +2.08546107095164e+003 +2.85546668118161e+002
+1.56000000000000e+003 +9.58647523986680e+006 -1.10083794598454e+007 +2.20499638070895e+007 +1.88395161209909e+003 +2.07988768616047e+003 +2.57181763835296e+002
+1.62000000000000e+003 +9.70048943227517e+006 -1.08830301118605e+007 +2.20646069845348e+007 +1.89303377291345e+003 +2.07411246381877e+003 +2.28799032050239e+002
+1.68000000000000e+003 +9.81503202108205e+006 -1.07580447674268e+007 +2.20775383459806e+007 +1.90195568117742e+003 +2.06813716097136e+003 +2.00400678608732e+002
+1.74000000000000e+003 +9.93009323992961e+006 -1.06334354930930e+007 +2.20887572604588e+007 +1.91071510374053e+003 +2.06196356596418e+003 +1.71988909627512e+002
+1.80000000000000e+003 +1.00456631916290e+007 -1.05092142439428e+007 +2.20982632317893e+007 +1.91930983312672e+003 +2.05559349810279e+003 +1.43565931316154e+002

END Ephemeris
